ALOS (DAICHI)           
1 28931U 06002A   26060.46978133  .00001696  00000+0  29253-3 0  9991
2 28931  98.1204  16.4674 0001259  51.5972 308.5346 14.69778107 72270
H-2A R/B                
1 28932U 06002B   26060.36032837  .00011351  00000+0  57137-3 0  9994
2 28932  98.2387 206.6702 0051980 269.7000  89.8274 15.16205144 93170
RESURS-DK 1             
1 29228U 06021A   26060.00528229  .00002851  00000+0  16864-3 0  9997
2 29228  69.9304 259.4889 0002575 166.8523 193.2711 15.12677600 86217
CZ-4B R/B               
1 29507U 06046C   26060.09935762  .00004854  00000+0  24749-3 0  9993
2 29507  97.5614 105.0312 0031842 298.6675  61.1357 15.16798297 58742
CZ-2C R/B               
1 31114U 07010B   26060.27186740  .00000142  00000+0  84233-4 0  9997
2 31114  98.3976 173.9729 0058149 319.5251  40.1609 14.20242747978529
COSMO-SKYMED 1          
1 31598U 07023A   26060.50705303  .00003616  00000+0  32391-3 0  9991
2 31598  97.8866 251.4743 0000902  83.7550 276.3773 14.96459355 13681
COSMOS 2428             
1 31792U 07029A   26060.46408174  .00000100  00000+0  79379-4 0  9997
2 31792  70.9417 220.6083 0008638 285.9722  74.0447 14.12943853962938
SL-16 R/B               
1 31793U 07029B   26060.50528284 -.00000224  00000+0 -91043-4 0  9999
2 31793  70.9755 189.5873 0002443 278.8763 149.8111 14.14834372964217
KORONAS-FOTON           
1 33504U 09003A   26060.07540545  .00012492  00000+0  28134-3 0  9999
2 33504  82.4291 284.8337 0010526 179.1996 180.9270 15.43077401944415
CZ-2C R/B               
1 37731U 11030B   26060.44749523  .00002069  00000+0  26637-3 0  9991
2 37731  97.8528  17.8767 0053215  18.8017  93.4962 14.81183104788871
H-2A R/B                
1 38341U 12025E   26060.49688553  .00004759  00000+0  43223-3 0  9992
2 38341  98.4705  26.8884 0044183 341.2901  18.6691 14.95079506746992
SHIJIAN-16 (SJ-16)      
1 39358U 13057A   26060.51719407  .00000918  00000+0  92517-4 0  9997
2 39358  74.9714 200.5579 0015872 133.7213 226.5293 14.92293119670286
