CCSDS_OMM_VERS = 2.0
CREATION_DATE  = 
ORIGINATOR     = 

OBJECT_NAME    = ALOS (DAICHI)
OBJECT_ID      = 2006-002A
CENTER_NAME    = EARTH
REF_FRAME      = TEME
TIME_SYSTEM    = UTC
MEAN_ELEMENT_THEORY = SGP/SGP4

EPOCH          = 2026-03-01T11:16:29.106912
MEAN_MOTION    = 14.69778107
ECCENTRICITY   = .0001259
INCLINATION    = 98.1204
RA_OF_ASC_NODE = 16.4674
ARG_OF_PERICENTER = 51.5972
MEAN_ANOMALY   = 308.5346

EPHEMERIS_TYPE = 0
CLASSIFICATION_TYPE = U
NORAD_CAT_ID   = 28931
ELEMENT_SET_NO = 999
REV_AT_EPOCH   = 7227
BSTAR          = .29253E-3
MEAN_MOTION_DOT = .1696E-4
MEAN_MOTION_DDOT = 0

CCSDS_OMM_VERS = 2.0
CREATION_DATE  = 
ORIGINATOR     = 

OBJECT_NAME    = H-2A R/B
OBJECT_ID      = 2006-002B
CENTER_NAME    = EARTH
REF_FRAME      = TEME
TIME_SYSTEM    = UTC
MEAN_ELEMENT_THEORY = SGP/SGP4

EPOCH          = 2026-03-01T08:38:52.371168
MEAN_MOTION    = 15.16205144
ECCENTRICITY   = .005198
INCLINATION    = 98.2387
RA_OF_ASC_NODE = 206.6702
ARG_OF_PERICENTER = 269.7000
MEAN_ANOMALY   = 89.8274

EPHEMERIS_TYPE = 0
CLASSIFICATION_TYPE = U
NORAD_CAT_ID   = 28932
ELEMENT_SET_NO = 999
REV_AT_EPOCH   = 9317
BSTAR          = .57137E-3
MEAN_MOTION_DOT = .11351E-3
MEAN_MOTION_DDOT = 0

CCSDS_OMM_VERS = 2.0
CREATION_DATE  = 
ORIGINATOR     = 

OBJECT_NAME    = RESURS-DK 1
OBJECT_ID      = 2006-021A
CENTER_NAME    = EARTH
REF_FRAME      = TEME
TIME_SYSTEM    = UTC
MEAN_ELEMENT_THEORY = SGP/SGP4

EPOCH          = 2026-03-01T00:07:36.389856
MEAN_MOTION    = 15.12677600
ECCENTRICITY   = .0002575
INCLINATION    = 69.9304
RA_OF_ASC_NODE = 259.4889
ARG_OF_PERICENTER = 166.8523
MEAN_ANOMALY   = 193.2711

EPHEMERIS_TYPE = 0
CLASSIFICATION_TYPE = U
NORAD_CAT_ID   = 29228
ELEMENT_SET_NO = 999
REV_AT_EPOCH   = 8621
BSTAR          = .16864174E-3
MEAN_MOTION_DOT = .2851E-4
MEAN_MOTION_DDOT = 0

CCSDS_OMM_VERS = 2.0
CREATION_DATE  = 
ORIGINATOR     = 

OBJECT_NAME    = CZ-4B R/B
OBJECT_ID      = 2006-046C
CENTER_NAME    = EARTH
REF_FRAME      = TEME
TIME_SYSTEM    = UTC
MEAN_ELEMENT_THEORY = SGP/SGP4

EPOCH          = 2026-03-01T02:23:04.498368
MEAN_MOTION    = 15.16798297
ECCENTRICITY   = .00318424
INCLINATION    = 97.5614
RA_OF_ASC_NODE = 105.0312
ARG_OF_PERICENTER = 298.6675
MEAN_ANOMALY   = 61.1357

EPHEMERIS_TYPE = 0
CLASSIFICATION_TYPE = U
NORAD_CAT_ID   = 29507
ELEMENT_SET_NO = 999
REV_AT_EPOCH   = 5874
BSTAR          = .24748815E-3
MEAN_MOTION_DOT = .4854E-4
MEAN_MOTION_DDOT = 0

CCSDS_OMM_VERS = 2.0
CREATION_DATE  = 
ORIGINATOR     = 

OBJECT_NAME    = CZ-2C R/B
OBJECT_ID      = 2007-010B
CENTER_NAME    = EARTH
REF_FRAME      = TEME
TIME_SYSTEM    = UTC
MEAN_ELEMENT_THEORY = SGP/SGP4

EPOCH          = 2026-03-01T06:31:29.343360
MEAN_MOTION    = 14.20242747
ECCENTRICITY   = .0058149
INCLINATION    = 98.3976
RA_OF_ASC_NODE = 173.9729
ARG_OF_PERICENTER = 319.5251
MEAN_ANOMALY   = 40.1609

EPHEMERIS_TYPE = 0
CLASSIFICATION_TYPE = U
NORAD_CAT_ID   = 31114
ELEMENT_SET_NO = 999
REV_AT_EPOCH   = 97852
BSTAR          = .84233E-4
MEAN_MOTION_DOT = .142E-5
MEAN_MOTION_DDOT = 0

CCSDS_OMM_VERS = 2.0
CREATION_DATE  = 
ORIGINATOR     = 

OBJECT_NAME    = COSMO-SKYMED 1
OBJECT_ID      = 2007-023A
CENTER_NAME    = EARTH
REF_FRAME      = TEME
TIME_SYSTEM    = UTC
MEAN_ELEMENT_THEORY = SGP/SGP4

EPOCH          = 2026-03-01T12:10:09.381792
MEAN_MOTION    = 14.96459355
ECCENTRICITY   = .0000902
INCLINATION    = 97.8866
RA_OF_ASC_NODE = 251.4743
ARG_OF_PERICENTER = 83.7550
MEAN_ANOMALY   = 276.3773

EPHEMERIS_TYPE = 0
CLASSIFICATION_TYPE = U
NORAD_CAT_ID   = 31598
ELEMENT_SET_NO = 999
REV_AT_EPOCH   = 1368
BSTAR          = .32391E-3
MEAN_MOTION_DOT = .3616E-4
MEAN_MOTION_DDOT = 0

CCSDS_OMM_VERS = 2.0
CREATION_DATE  = 
ORIGINATOR     = 

OBJECT_NAME    = COSMOS 2428
OBJECT_ID      = 2007-029A
CENTER_NAME    = EARTH
REF_FRAME      = TEME
TIME_SYSTEM    = UTC
MEAN_ELEMENT_THEORY = SGP/SGP4

EPOCH          = 2026-03-01T11:08:16.662336
MEAN_MOTION    = 14.12943853
ECCENTRICITY   = .0008638
INCLINATION    = 70.9417
RA_OF_ASC_NODE = 220.6083
ARG_OF_PERICENTER = 285.9722
MEAN_ANOMALY   = 74.0447

EPHEMERIS_TYPE = 0
CLASSIFICATION_TYPE = U
NORAD_CAT_ID   = 31792
ELEMENT_SET_NO = 999
REV_AT_EPOCH   = 96293
BSTAR          = .79379E-4
MEAN_MOTION_DOT = .1E-5
MEAN_MOTION_DDOT = 0

CCSDS_OMM_VERS = 2.0
CREATION_DATE  = 
ORIGINATOR     = 

OBJECT_NAME    = SL-16 R/B
OBJECT_ID      = 2007-029B
CENTER_NAME    = EARTH
REF_FRAME      = TEME
TIME_SYSTEM    = UTC
MEAN_ELEMENT_THEORY = SGP/SGP4

EPOCH          = 2026-03-01T12:07:36.437376
MEAN_MOTION    = 14.14834372
ECCENTRICITY   = .0002443
INCLINATION    = 70.9755
RA_OF_ASC_NODE = 189.5873
ARG_OF_PERICENTER = 278.8763
MEAN_ANOMALY   = 149.8111

EPHEMERIS_TYPE = 0
CLASSIFICATION_TYPE = U
NORAD_CAT_ID   = 31793
ELEMENT_SET_NO = 999
REV_AT_EPOCH   = 96421
BSTAR          = -.91043E-4
MEAN_MOTION_DOT = -.224E-5
MEAN_MOTION_DDOT = 0

CCSDS_OMM_VERS = 2.0
CREATION_DATE  = 
ORIGINATOR     = 

OBJECT_NAME    = KORONAS-FOTON
OBJECT_ID      = 2009-003A
CENTER_NAME    = EARTH
REF_FRAME      = TEME
TIME_SYSTEM    = UTC
MEAN_ELEMENT_THEORY = SGP/SGP4

EPOCH          = 2026-03-01T01:48:35.030880
MEAN_MOTION    = 15.43077401
ECCENTRICITY   = .00105261
INCLINATION    = 82.4291
RA_OF_ASC_NODE = 284.8337
ARG_OF_PERICENTER = 179.1996
MEAN_ANOMALY   = 180.9270

EPHEMERIS_TYPE = 0
CLASSIFICATION_TYPE = U
NORAD_CAT_ID   = 33504
ELEMENT_SET_NO = 999
REV_AT_EPOCH   = 94441
BSTAR          = .28133822E-3
MEAN_MOTION_DOT = .12492E-3
MEAN_MOTION_DDOT = 0

CCSDS_OMM_VERS = 2.0
CREATION_DATE  = 
ORIGINATOR     = 

OBJECT_NAME    = CZ-2C R/B
OBJECT_ID      = 2011-030B
CENTER_NAME    = EARTH
REF_FRAME      = TEME
TIME_SYSTEM    = UTC
MEAN_ELEMENT_THEORY = SGP/SGP4

EPOCH          = 2026-03-01T10:44:23.587872
MEAN_MOTION    = 14.81183104
ECCENTRICITY   = .0053215
INCLINATION    = 97.8528
RA_OF_ASC_NODE = 17.8767
ARG_OF_PERICENTER = 18.8017
MEAN_ANOMALY   = 93.4962

EPHEMERIS_TYPE = 0
CLASSIFICATION_TYPE = U
NORAD_CAT_ID   = 37731
ELEMENT_SET_NO = 999
REV_AT_EPOCH   = 78887
BSTAR          = .26637E-3
MEAN_MOTION_DOT = .2069E-4
MEAN_MOTION_DDOT = 0

CCSDS_OMM_VERS = 2.0
CREATION_DATE  = 
ORIGINATOR     = 

OBJECT_NAME    = H-2A R/B
OBJECT_ID      = 2012-025E
CENTER_NAME    = EARTH
REF_FRAME      = TEME
TIME_SYSTEM    = UTC
MEAN_ELEMENT_THEORY = SGP/SGP4

EPOCH          = 2026-03-01T11:55:30.909792
MEAN_MOTION    = 14.95079506
ECCENTRICITY   = .0044183
INCLINATION    = 98.4705
RA_OF_ASC_NODE = 26.8884
ARG_OF_PERICENTER = 341.2901
MEAN_ANOMALY   = 18.6691

EPHEMERIS_TYPE = 0
CLASSIFICATION_TYPE = U
NORAD_CAT_ID   = 38341
ELEMENT_SET_NO = 999
REV_AT_EPOCH   = 74699
BSTAR          = .43223E-3
MEAN_MOTION_DOT = .4759E-4
MEAN_MOTION_DDOT = 0

CCSDS_OMM_VERS = 2.0
CREATION_DATE  = 
ORIGINATOR     = 

OBJECT_NAME    = SHIJIAN-16 (SJ-16)
OBJECT_ID      = 2013-057A
CENTER_NAME    = EARTH
REF_FRAME      = TEME
TIME_SYSTEM    = UTC
MEAN_ELEMENT_THEORY = SGP/SGP4

EPOCH          = 2026-03-01T12:24:45.567648
MEAN_MOTION    = 14.92293119
ECCENTRICITY   = .0015872
INCLINATION    = 74.9714
RA_OF_ASC_NODE = 200.5579
ARG_OF_PERICENTER = 133.7213
MEAN_ANOMALY   = 226.5293

EPHEMERIS_TYPE = 0
CLASSIFICATION_TYPE = U
NORAD_CAT_ID   = 39358
ELEMENT_SET_NO = 999
REV_AT_EPOCH   = 67028
BSTAR          = .92517E-4
MEAN_MOTION_DOT = .918E-5
MEAN_MOTION_DDOT = 0

